[
  {
    "name": "STARLINK-31589",
    "noradId": "59654",
    "line1": "1 59654U 24084A   26167.58334491  .00057854  00000+0  20968-2 0  9991",
    "line2": "2 59654  43.0001 203.1370 0001505 276.7956 297.9818 15.27558545  5868"
  },
  {
    "name": "STARLINK-31665",
    "noradId": "59655",
    "line1": "1 59655U 24084B   26166.83328927  .00000325  00000+0  21353-4 0  9998",
    "line2": "2 59655  43.0008 204.0236 0001584 280.5998  79.4675 15.27575939119421"
  },
  {
    "name": "STARLINK-31912",
    "noradId": "59656",
    "line1": "1 59656U 24084C   26167.37645631  .00000306  00000+0  20655-4 0  9996",
    "line2": "2 59656  43.0005 204.6741 0002041 271.1110  88.9507 15.27576552119462"
  },
  {
    "name": "STARLINK-31904",
    "noradId": "59657",
    "line1": "1 59657U 24084D   26166.84308578 -.00000391  00000+0 -46909-5 0  9991",
    "line2": "2 59657  43.0015 207.5540 0001261 278.9817  81.0892 15.27575683119381"
  },
  {
    "name": "STARLINK-31858",
    "noradId": "59658",
    "line1": "1 59658U 24084E   26167.40589436 -.00003675  00000+0 -12417-3 0  9992",
    "line2": "2 59658  43.0015 204.0332 0001722 281.1408  78.9250 15.27554318119472"
  },
  {
    "name": "STARLINK-31881",
    "noradId": "59659",
    "line1": "1 59659U 24084F   26167.39863647  .00000362  00000+0  22684-4 0  9996",
    "line2": "2 59659  43.0013 200.5147 0001121 273.5691  86.5033 15.27575497119518"
  },
  {
    "name": "STARLINK-31885",
    "noradId": "59660",
    "line1": "1 59660U 24084G   26167.36409459  .00000989  00000+0  45468-4 0  9992",
    "line2": "2 59660  43.0031 201.1212 0001748 275.4049  84.6604 15.27580101119503"
  },
  {
    "name": "STARLINK-31880",
    "noradId": "59661",
    "line1": "1 59661U 24084H   26166.82687163 -.00000558  00000+0 -10770-4 0  9995",
    "line2": "2 59661  43.0026 203.9734 0001116 297.9184  62.1554 15.27571456119424"
  },
  {
    "name": "STARLINK-31886",
    "noradId": "59662",
    "line1": "1 59662U 24084J   26165.41100703  .00000141  00000+0  14659-4 0  9996",
    "line2": "2 59662  43.0118 215.7300 0001654 283.4730  76.5937 15.27579262119169"
  },
  {
    "name": "STARLINK-31909",
    "noradId": "59663",
    "line1": "1 59663U 24084K   26167.39558565  .00001149  00000+0  51256-4 0  9992",
    "line2": "2 59663  42.9979 203.9933 0001213 282.3128  77.7588 15.27579309119475"
  },
  {
    "name": "STARLINK-31910",
    "noradId": "59664",
    "line1": "1 59664U 24084L   26167.40971244  .00000130  00000+0  14255-4 0  9995",
    "line2": "2 59664  43.0010 204.0541 0001184 274.0578  86.0138 15.27579681119472"
  },
  {
    "name": "STARLINK-31902",
    "noradId": "59666",
    "line1": "1 59666U 24084N   26167.38028536  .00002864  00000+0  11347-3 0  9995",
    "line2": "2 59666  43.0049 204.7002 0000574 233.7908 126.2891 15.27600483119463"
  },
  {
    "name": "STARLINK-31913",
    "noradId": "59667",
    "line1": "1 59667U 24084P   26166.82301048 -.00000161  00000+0  37077-5 0  9995",
    "line2": "2 59667  43.0081 203.9386 0001982 293.6652  66.3992 15.27570694119423"
  },
  {
    "name": "STARLINK-31866",
    "noradId": "59668",
    "line1": "1 59668U 24084Q   26167.39140685  .00000531  00000+0  28835-4 0  9998",
    "line2": "2 59668  43.0055 196.9841 0001066 279.3237  80.7494 15.27576695119553"
  },
  {
    "name": "STARLINK-31917",
    "noradId": "59669",
    "line1": "1 59669U 24084R   26166.83921765  .00001360  00000+0  58928-4 0  9990",
    "line2": "2 59669  42.9999 207.5082 0001122 265.4354  94.6369 15.27583462119380"
  },
  {
    "name": "STARLINK-31860",
    "noradId": "59670",
    "line1": "1 59670U 24084S   26167.36023587  .00000857  00000+0  40666-4 0  9996",
    "line2": "2 59670  42.9962 201.0837 0000957 238.0172 122.0587 15.27578462119481"
  },
  {
    "name": "STARLINK-31854",
    "noradId": "59671",
    "line1": "1 59671U 24084T   26167.31636169  .00009265  00000+0  34643-3 0  9997",
    "line2": "2 59671  43.0012 171.7775 0000422 202.9320 157.1513 15.27517832119815"
  },
  {
    "name": "STARLINK-31842",
    "noradId": "59672",
    "line1": "1 59672U 24084U   26167.36794236  .00000473  00000+0  26729-4 0  9992",
    "line2": "2 59672  43.0023 201.1430 0001356 274.5462  85.5235 15.27578767119508"
  },
  {
    "name": "STARLINK-31871",
    "noradId": "59673",
    "line1": "1 59673U 24084V   26166.83151754 -.00000454  00000+0 -69927-5 0  9995",
    "line2": "2 59673  43.0044 207.4535 0001089 276.4238  83.6490 15.27574009119385"
  },
  {
    "name": "STARLINK-31875",
    "noradId": "59674",
    "line1": "1 59674U 24084W   26165.84863684 -.00000899  00000+0 -23114-4 0  9998",
    "line2": "2 59674  43.0163 209.5281 0003233 282.1284  77.9205 15.27572627119279"
  },
  {
    "name": "STARLINK-31877",
    "noradId": "59675",
    "line1": "1 59675U 24084X   26167.37002757  .00000636  00000+0  32651-4 0  9998",
    "line2": "2 59675  43.0054 204.6199 0001737 274.4649  85.6004 15.27580610119464"
  },
  {
    "name": "STARLINK-31884",
    "noradId": "59676",
    "line1": "1 59676U 24084Y   26165.85459196  .00011176  00000+0  41505-3 0  9991",
    "line2": "2 59676  42.9963 213.0496 0000739  34.8901 325.1999 15.27577491119239"
  },
  {
    "name": "STARLINK-32108",
    "noradId": "59682",
    "line1": "1 59682U 24086A   26167.44675814  .00000289  00000+0  20034-4 0  9992",
    "line2": "2 59682  43.0011 225.7744 0001185 278.5334  81.5384 15.27578614119162"
  },
  {
    "name": "STARLINK-32080",
    "noradId": "59683",
    "line1": "1 59683U 24086B   26167.46860745  .00004986  00000+0  19072-3 0  9991",
    "line2": "2 59683  42.9964 225.9475 0000929 252.4482 107.6268 15.27556806119183"
  },
  {
    "name": "STARLINK-32091",
    "noradId": "59684",
    "line1": "1 59684U 24086C   26166.86603883 -.00000091  00000+0  62051-5 0  9994",
    "line2": "2 59684  43.0035 217.9576 0001289 290.4478  69.6236 15.27569523119222"
  },
  {
    "name": "STARLINK-32085",
    "noradId": "59685",
    "line1": "1 59685U 24086D   26167.43439921  .00001213  00000+0  53600-4 0  9994",
    "line2": "2 59685  43.0005 222.2578 0001231 271.3859  88.6852 15.27578139119216"
  },
  {
    "name": "STARLINK-32100",
    "noradId": "59686",
    "line1": "1 59686U 24086E   26166.80204556  .00001083  00000+0  48856-4 0  9991",
    "line2": "2 59686  42.9961 207.7043 0001384 267.8074  92.2620 15.27582561119329"
  },
  {
    "name": "STARLINK-32089",
    "noradId": "59687",
    "line1": "1 59687U 24086F   26167.41897943  .00000946  00000+0  43910-4 0  9991",
    "line2": "2 59687  43.0015 222.1479 0001358 261.5769  98.4929 15.27581760119217"
  },
  {
    "name": "STARLINK-32103",
    "noradId": "59688",
    "line1": "1 59688U 24086G   26167.41914926  .00000122  00000+0  13962-4 0  9993",
    "line2": "2 59688  42.9990 211.7621 0001087 265.7622  94.3105 15.27576518119333"
  },
  {
    "name": "STARLINK-32105",
    "noradId": "59689",
    "line1": "1 59689U 24086H   26166.88947147 -.00000125  00000+0  49647-5 0  9999",
    "line2": "2 59689  42.9972 225.0525 0000681 248.8281 111.2498 15.27573061119139"
  }
]