OBJECT_NAME,OBJECT_ID,EPOCH,MEAN_MOTION,ECCENTRICITY,INCLINATION,RA_OF_ASC_NODE,ARG_OF_PERICENTER,MEAN_ANOMALY,EPHEMERIS_TYPE,CLASSIFICATION_TYPE,NORAD_CAT_ID,ELEMENT_SET_NO,REV_AT_EPOCH,BSTAR,MEAN_MOTION_DOT,MEAN_MOTION_DDOT
STARLINK-31589,2024-084A,2026-06-16T14:00:01.000224,15.27558545,.00015053,43.0001,203.1370,276.7956,297.9818,0,U,59654,999,586,.20968244E-2,.57854E-3,0
STARLINK-31665,2024-084B,2026-06-15T19:59:56.192928,15.27575939,.00015847,43.0008,204.0236,280.5998,79.4675,0,U,59655,999,11942,.21352916E-4,.325E-5,0
STARLINK-31912,2024-084C,2026-06-16T09:02:05.825184,15.27576552,.00020412,43.0005,204.6741,271.1110,88.9507,0,U,59656,999,11946,.20654712E-4,.306E-5,0
STARLINK-31904,2024-084D,2026-06-15T20:14:02.611392,15.27575683,.00012615,43.0015,207.5540,278.9817,81.0892,0,U,59657,999,11938,-.469094E-5,-.391E-5,0
STARLINK-31858,2024-084E,2026-06-16T09:44:29.272704,15.27554318,.00017222,43.0015,204.0332,281.1408,78.9250,0,U,59658,999,11947,-.12416791E-3,-.3675E-4,0
STARLINK-31881,2024-084F,2026-06-16T09:34:02.191008,15.27575497,.00011213,43.0013,200.5147,273.5691,86.5033,0,U,59659,999,11951,.22683776E-4,.362E-5,0
STARLINK-31885,2024-084G,2026-06-16T08:44:17.772576,15.27580101,.00017487,43.0031,201.1212,275.4049,84.6604,0,U,59660,999,11950,.4546808E-4,.989E-5,0
STARLINK-31880,2024-084H,2026-06-15T19:50:41.708832,15.27571456,.00011167,43.0026,203.9734,297.9184,62.1554,0,U,59661,999,11942,-.1077029E-4,-.558E-5,0
STARLINK-31886,2024-084J,2026-06-14T09:51:51.007392,15.27579262,.00016549,43.0118,215.7300,283.4730,76.5937,0,U,59662,999,11916,.14658526E-4,.141E-5,0
STARLINK-31909,2024-084K,2026-06-16T09:29:38.600160,15.27579309,.00012131,42.9979,203.9933,282.3128,77.7588,0,U,59663,999,11947,.51256444E-4,.1149E-4,0
STARLINK-31910,2024-084L,2026-06-16T09:49:59.154816,15.27579681,.00011848,43.0010,204.0541,274.0578,86.0138,0,U,59664,999,11947,.14254736E-4,.13E-5,0
STARLINK-31902,2024-084N,2026-06-16T09:07:36.655104,15.27600483,.0000574,43.0049,204.7002,233.7908,126.2891,0,U,59666,999,11946,.11346744E-3,.2864E-4,0
STARLINK-31913,2024-084P,2026-06-15T19:45:08.105472,15.27570694,.00019821,43.0081,203.9386,293.6652,66.3992,0,U,59667,999,11942,.370769E-5,-.161E-5,0
STARLINK-31866,2024-084Q,2026-06-16T09:23:37.551840,15.27576695,.00010665,43.0055,196.9841,279.3237,80.7494,0,U,59668,999,11955,.28835407E-4,.531E-5,0
STARLINK-31917,2024-084R,2026-06-15T20:08:28.404960,15.27583462,.00011227,42.9999,207.5082,265.4354,94.6369,0,U,59669,999,11938,.58927902E-4,.136E-4,0
STARLINK-31860,2024-084S,2026-06-16T08:38:44.379168,15.27578462,.00009579,42.9962,201.0837,238.0172,122.0587,0,U,59670,999,11948,.40666316E-4,.857E-5,0
STARLINK-31854,2024-084T,2026-06-16T07:35:33.650016,15.27517832,.0000422,43.0012,171.7775,202.9320,157.1513,0,U,59671,999,11981,.34642939E-3,.9265E-4,0
STARLINK-31842,2024-084U,2026-06-16T08:49:50.219904,15.27578767,.00013564,43.0023,201.1430,274.5462,85.5235,0,U,59672,999,11950,.26729368E-4,.473E-5,0
STARLINK-31871,2024-084V,2026-06-15T19:57:23.115456,15.27574009,.00010894,43.0044,207.4535,276.4238,83.6490,0,U,59673,999,11938,-.6992708E-5,-.454E-5,0
STARLINK-31875,2024-084W,2026-06-14T20:22:02.222976,15.27572627,.00032332,43.0163,209.5281,282.1284,77.9205,0,U,59674,999,11927,-.23114364E-4,-.899E-5,0
STARLINK-31877,2024-084X,2026-06-16T08:52:50.382048,15.27580610,.00017371,43.0054,204.6199,274.4649,85.6004,0,U,59675,999,11946,.32651271E-4,.636E-5,0
STARLINK-31884,2024-084Y,2026-06-14T20:30:36.745344,15.27577491,.00007392,42.9963,213.0496,34.8901,325.1999,0,U,59676,999,11923,.4150467E-3,.11176E-3,0
STARLINK-32108,2024-086A,2026-06-16T10:43:19.903296,15.27578614,.00011856,43.0011,225.7744,278.5334,81.5384,0,U,59682,999,11916,.20033686E-4,.289E-5,0
STARLINK-32080,2024-086B,2026-06-16T11:14:47.683680,15.27556806,.0000929,42.9964,225.9475,252.4482,107.6268,0,U,59683,999,11918,.19071779E-3,.4986E-4,0
STARLINK-32091,2024-086C,2026-06-15T20:47:05.754912,15.27569523,.0001289,43.0035,217.9576,290.4478,69.6236,0,U,59684,999,11922,.62051E-5,-.91E-6,0
STARLINK-32085,2024-086D,2026-06-16T10:25:32.091744,15.27578139,.00012315,43.0005,222.2578,271.3859,88.6852,0,U,59685,999,11921,.5360002E-4,.1213E-4,0
STARLINK-32100,2024-086E,2026-06-15T19:14:56.736384,15.27582561,.00013841,42.9961,207.7043,267.8074,92.2620,0,U,59686,999,11932,.48855697E-4,.1083E-4,0
STARLINK-32089,2024-086F,2026-06-16T10:03:19.822752,15.27581760,.00013582,43.0015,222.1479,261.5769,98.4929,0,U,59687,999,11921,.43909695E-4,.946E-5,0
STARLINK-32103,2024-086G,2026-06-16T10:03:34.496064,15.27576518,.00010871,42.9990,211.7621,265.7622,94.3105,0,U,59688,999,11933,.13961979E-4,.122E-5,0
STARLINK-32105,2024-086H,2026-06-15T21:20:50.335008,15.27573061,.0000681,42.9972,225.0525,248.8281,111.2498,0,U,59689,999,11913,.49647E-5,-.125E-5,0
